{
  "type": "FeatureCollection",
  "features": [
    {
      "type": "Feature",
      "properties": {
        "norad_id": 32376,
        "name": "COSMO-SKYMED 2",
        "group": "resource",
        "lat": -71.17616267469438,
        "lon": -43.22017113683539,
        "alt_km": 630.8984335345058,
        "timestamp": "2025-12-05T07:38:18.504948+00:00",
        "meta_object_name": "COSMO-SKYMED 2",
        "meta_object_id": "2007-059A",
        "meta_epoch": "2025-12-04T19:09:34.151616",
        "meta_mean_motion": 14.82151526,
        "meta_eccentricity": 0.0001565,
        "meta_inclination": 97.8806,
        "meta_ra_of_asc_node": 160.2415,
        "meta_arg_of_pericenter": 87.948,
        "meta_mean_anomaly": 272.1913,
        "meta_ephemeris_type": 0,
        "meta_classification_type": "U",
        "meta_norad_cat_id": 32376,
        "meta_element_set_no": 999,
        "meta_rev_at_epoch": 97320,
        "meta_bstar": 0.00017129,
        "meta_mean_motion_dot": 1.312e-05,
        "meta_mean_motion_ddot": 0,
        "tle_line1": "1 32376U 07059A   25338.79831194  .00001312  00000+0  17129-3 0  9994",
        "tle_line2": "2 32376  97.8806 160.2415 0001565  87.9480 272.1913 14.82151526973204"
      },
      "geometry": {
        "type": "Point",
        "coordinates": [
          -43.22017113683539,
          -71.17616267469438
        ]
      }
    },
    {
      "type": "Feature",
      "properties": {
        "norad_id": 32382,
        "name": "RADARSAT-2",
        "group": "resource",
        "lat": 26.23607792331028,
        "lon": 168.28338283080916,
        "alt_km": 790.4787540694224,
        "timestamp": "2025-12-05T07:38:18.504958+00:00",
        "meta_object_name": "RADARSAT-2",
        "meta_object_id": "2007-061A",
        "meta_epoch": "2025-12-04T17:29:22.003296",
        "meta_mean_motion": 14.29984287,
        "meta_eccentricity": 0.0001076,
        "meta_inclination": 98.5799,
        "meta_ra_of_asc_node": 343.4353,
        "meta_arg_of_pericenter": 90.3652,
        "meta_mean_anomaly": 269.7654,
        "meta_ephemeris_type": 0,
        "meta_classification_type": "U",
        "meta_norad_cat_id": 32382,
        "meta_element_set_no": 999,
        "meta_rev_at_epoch": 93816,
        "meta_bstar": 8.3277e-05,
        "meta_mean_motion_dot": 1.71e-06,
        "meta_mean_motion_ddot": 0,
        "tle_line1": "1 32382U 07061A   25338.72872689  .00000171  00000+0  83277-4 0  9991",
        "tle_line2": "2 32382  98.5799 343.4353 0001076  90.3652 269.7654 14.29984287938161"
      },
      "geometry": {
        "type": "Point",
        "coordinates": [
          168.28338283080916,
          26.23607792331028
        ]
      }
    },
    {
      "type": "Feature",
      "properties": {
        "norad_id": 32783,
        "name": "CARTOSAT-2A",
        "group": "resource",
        "lat": 60.07772070061134,
        "lon": -136.85881875996145,
        "alt_km": 627.0824524097516,
        "timestamp": "2025-12-05T07:38:18.504968+00:00",
        "meta_object_name": "CARTOSAT-2A",
        "meta_object_id": "2008-021A",
        "meta_epoch": "2025-12-04T18:06:47.310336",
        "meta_mean_motion": 14.7891425,
        "meta_eccentricity": 0.0012401,
        "meta_inclination": 97.7942,
        "meta_ra_of_asc_node": 28.8274,
        "meta_arg_of_pericenter": 29.6842,
        "meta_mean_anomaly": 330.5071,
        "meta_ephemeris_type": 0,
        "meta_classification_type": "U",
        "meta_norad_cat_id": 32783,
        "meta_element_set_no": 999,
        "meta_rev_at_epoch": 95006,
        "meta_bstar": 0.00024182,
        "meta_mean_motion_dot": 1.735e-05,
        "meta_mean_motion_ddot": 0,
        "tle_line1": "1 32783U 08021A   25338.75471424  .00001735  00000+0  24182-3 0  9994",
        "tle_line2": "2 32783  97.7942  28.8274 0012401  29.6842 330.5071 14.78914250950063"
      },
      "geometry": {
        "type": "Point",
        "coordinates": [
          -136.85881875996145,
          60.07772070061134
        ]
      }
    },
    {
      "type": "Feature",
      "properties": {
        "norad_id": 33320,
        "name": "HUANJING 1A (HJ-1A)",
        "group": "resource",
        "lat": -45.1533184781766,
        "lon": 140.1578980164628,
        "alt_km": 639.6150861598817,
        "timestamp": "2025-12-05T07:38:18.504978+00:00",
        "meta_object_name": "HUANJING 1A (HJ-1A)",
        "meta_object_id": "2008-041A",
        "meta_epoch": "2025-12-04T17:40:26.802912",
        "meta_mean_motion": 14.83354932,
        "meta_eccentricity": 0.0020609,
        "meta_inclination": 97.653,
        "meta_ra_of_asc_node": 327.3696,
        "meta_arg_of_pericenter": 59.3492,
        "meta_mean_anomaly": 300.9751,
        "meta_ephemeris_type": 0,
        "meta_classification_type": "U",
        "meta_norad_cat_id": 33320,
        "meta_element_set_no": 999,
        "meta_rev_at_epoch": 92957,
        "meta_bstar": 0.00042685,
        "meta_mean_motion_dot": 3.461e-05,
        "meta_mean_motion_ddot": 0,
        "tle_line1": "1 33320U 08041A   25338.73642133  .00003461  00000+0  42685-3 0  9995",
        "tle_line2": "2 33320  97.6530 327.3696 0020609  59.3492 300.9751 14.83354932929577"
      },
      "geometry": {
        "type": "Point",
        "coordinates": [
          140.1578980164628,
          -45.1533184781766
        ]
      }
    },
    {
      "type": "Feature",
      "properties": {
        "norad_id": 33321,
        "name": "HUANJING 1B (HJ-1B)",
        "group": "resource",
        "lat": 75.88809047066509,
        "lon": -176.09006107951822,
        "alt_km": 586.6202289179464,
        "timestamp": "2025-12-05T07:38:18.504989+00:00",
        "meta_object_name": "HUANJING 1B (HJ-1B)",
        "meta_object_id": "2008-041B",
        "meta_epoch": "2025-12-04T18:13:34.358016",
        "meta_mean_motion": 14.82789219,
        "meta_eccentricity": 0.0038222,
        "meta_inclination": 97.6391,
        "meta_ra_of_asc_node": 331.1095,
        "meta_arg_of_pericenter": 101.0469,
        "meta_mean_anomaly": 259.5047,
        "meta_ephemeris_type": 0,
        "meta_classification_type": "U",
        "meta_norad_cat_id": 33321,
        "meta_element_set_no": 999,
        "meta_rev_at_epoch": 92959,
        "meta_bstar": 0.00031985,
        "meta_mean_motion_dot": 2.568e-05,
        "meta_mean_motion_ddot": 0,
        "tle_line1": "1 33321U 08041B   25338.75942544  .00002568  00000+0  31985-3 0  9995",
        "tle_line2": "2 33321  97.6391 331.1095 0038222 101.0469 259.5047 14.82789219929596"
      },
      "geometry": {
        "type": "Point",
        "coordinates": [
          -176.09006107951822,
          75.88809047066509
        ]
      }
    },
    {
      "type": "Feature",
      "properties": {
        "norad_id": 33331,
        "name": "GEOEYE 1",
        "group": "resource",
        "lat": -27.795679045587125,
        "lon": -133.62820175645393,
        "alt_km": 683.9625546208317,
        "timestamp": "2025-12-05T07:38:18.504999+00:00",
        "meta_object_name": "GEOEYE 1",
        "meta_object_id": "2008-042A",
        "meta_epoch": "2025-12-04T15:56:12.064128",
        "meta_mean_motion": 14.64795668,
        "meta_eccentricity": 0.0002931,
        "meta_inclination": 98.1262,
        "meta_ra_of_asc_node": 50.0453,
        "meta_arg_of_pericenter": 312.0815,
        "meta_mean_anomaly": 48.0138,
        "meta_ephemeris_type": 0,
        "meta_classification_type": "U",
        "meta_norad_cat_id": 33331,
        "meta_element_set_no": 999,
        "meta_rev_at_epoch": 92167,
        "meta_bstar": 0.00024057,
        "meta_mean_motion_dot": 1.236e-05,
        "meta_mean_motion_ddot": 0,
        "tle_line1": "1 33331U 08042A   25338.66402852  .00001236  00000+0  24057-3 0  9993",
        "tle_line2": "2 33331  98.1262  50.0453 0002931 312.0815  48.0138 14.64795668921670"
      },
      "geometry": {
        "type": "Point",
        "coordinates": [
          -133.62820175645393,
          -27.795679045587125
        ]
      }
    },
    {
      "type": "Feature",
      "properties": {
        "norad_id": 33396,
        "name": "THEOS",
        "group": "resource",
        "lat": 2.424194567315261,
        "lon": -142.00690325885583,
        "alt_km": 827.4765021459707,
        "timestamp": "2025-12-05T07:38:18.505010+00:00",
        "meta_object_name": "THEOS",
        "meta_object_id": "2008-049A",
        "meta_epoch": "2025-12-04T18:58:07.746816",
        "meta_mean_motion": 14.20093845,
        "meta_eccentricity": 0.00011,
        "meta_inclination": 98.5879,
        "meta_ra_of_asc_node": 37.1142,
        "meta_arg_of_pericenter": 100.2109,
        "meta_mean_anomaly": 259.9191,
        "meta_ephemeris_type": 0,
        "meta_classification_type": "U",
        "meta_norad_cat_id": 33396,
        "meta_element_set_no": 999,
        "meta_rev_at_epoch": 89037,
        "meta_bstar": 9.4553e-05,
        "meta_mean_motion_dot": 1.59e-06,
        "meta_mean_motion_ddot": 0,
        "tle_line1": "1 33396U 08049A   25338.79036744  .00000159  00000+0  94553-4 0  9990",
        "tle_line2": "2 33396  98.5879  37.1142 0001100 100.2109 259.9191 14.20093845890374"
      },
      "geometry": {
        "type": "Point",
        "coordinates": [
          -142.00690325885583,
          2.424194567315261
        ]
      }
    }
  ]
}